{
  "type": "FeatureCollection",
  "features": [
    {
      "type": "Feature",
      "properties": {
        "norad_id": 66909,
        "name": "SILVERSAT",
        "group": "stations",
        "lat": -31.939966162531647,
        "lon": 83.76044162391986,
        "alt_km": 412.0229834119009,
        "timestamp": "2025-12-18T13:51:48.402227+00:00",
        "meta_object_name": "SILVERSAT",
        "meta_object_id": "1998-067XV",
        "meta_epoch": "2025-12-17T14:52:13.125504",
        "meta_mean_motion": 15.52286885,
        "meta_eccentricity": 0.00039934,
        "meta_inclination": 51.6308,
        "meta_ra_of_asc_node": 118.1251,
        "meta_arg_of_pericenter": 257.3923,
        "meta_mean_anomaly": 102.662,
        "meta_ephemeris_type": 0,
        "meta_classification_type": "U",
        "meta_norad_cat_id": 66909,
        "meta_element_set_no": 999,
        "meta_rev_at_epoch": 237,
        "meta_bstar": 0.00095195038,
        "meta_mean_motion_dot": 0.00058931,
        "meta_mean_motion_ddot": 0,
        "tle_line1": "1 66909U 98067XV  25351.61959636  .00058931  00000+0  95195-3 0  9998",
        "tle_line2": "2 66909  51.6308 118.1251 0003993 257.3923 102.6620 15.52286885  2378"
      },
      "geometry": {
        "type": "Point",
        "coordinates": [
          83.76044162391986,
          -31.939966162531647
        ]
      }
    },
    {
      "type": "Feature",
      "properties": {
        "norad_id": 66910,
        "name": "1998-067XW",
        "group": "stations",
        "lat": -24.922211247747654,
        "lon": 91.73718683003325,
        "alt_km": 412.97722459838224,
        "timestamp": "2025-12-18T13:51:48.402237+00:00",
        "meta_object_name": "1998-067XW",
        "meta_object_id": "1998-067XW",
        "meta_epoch": "2025-12-17T14:49:41.645568",
        "meta_mean_motion": 15.52327753,
        "meta_eccentricity": 0.00045296,
        "meta_inclination": 51.6302,
        "meta_ra_of_asc_node": 118.1137,
        "meta_arg_of_pericenter": 233.5237,
        "meta_mean_anomaly": 126.5336,
        "meta_ephemeris_type": 0,
        "meta_classification_type": "U",
        "meta_norad_cat_id": 66910,
        "meta_element_set_no": 999,
        "meta_rev_at_epoch": 237,
        "meta_bstar": 0.00083127757,
        "meta_mean_motion_dot": 0.00051432,
        "meta_mean_motion_ddot": 0,
        "tle_line1": "1 66910U 98067XW  25351.61784312  .00051432  00000+0  83128-3 0  9999",
        "tle_line2": "2 66910  51.6302 118.1137 0004529 233.5237 126.5336 15.52327753  2376"
      },
      "geometry": {
        "type": "Point",
        "coordinates": [
          91.73718683003325,
          -24.922211247747654
        ]
      }
    },
    {
      "type": "Feature",
      "properties": {
        "norad_id": 66911,
        "name": "1998-067XX",
        "group": "stations",
        "lat": -16.793261159836877,
        "lon": 99.48257074435098,
        "alt_km": 411.47517205294844,
        "timestamp": "2025-12-18T13:51:48.402247+00:00",
        "meta_object_name": "1998-067XX",
        "meta_object_id": "1998-067XX",
        "meta_epoch": "2025-12-17T14:47:13.814304",
        "meta_mean_motion": 15.52703134,
        "meta_eccentricity": 0.00042191,
        "meta_inclination": 51.6305,
        "meta_ra_of_asc_node": 118.1027,
        "meta_arg_of_pericenter": 237.6725,
        "meta_mean_anomaly": 122.3857,
        "meta_ephemeris_type": 0,
        "meta_classification_type": "U",
        "meta_norad_cat_id": 66911,
        "meta_element_set_no": 999,
        "meta_rev_at_epoch": 236,
        "meta_bstar": 0.00097424314,
        "meta_mean_motion_dot": 0.00061259,
        "meta_mean_motion_ddot": 0,
        "tle_line1": "1 66911U 98067XX  25351.61613211  .00061259  00000+0  97424-3 0  9991",
        "tle_line2": "2 66911  51.6305 118.1027 0004219 237.6725 122.3857 15.52703134  2363"
      },
      "geometry": {
        "type": "Point",
        "coordinates": [
          99.48257074435098,
          -16.793261159836877
        ]
      }
    },
    {
      "type": "Feature",
      "properties": {
        "norad_id": 66912,
        "name": "1998-067XY",
        "group": "stations",
        "lat": -45.02681369720001,
        "lon": 60.93402937226266,
        "alt_km": 414.0933860368368,
        "timestamp": "2025-12-18T13:51:48.402282+00:00",
        "meta_object_name": "1998-067XY",
        "meta_object_id": "1998-067XY",
        "meta_epoch": "2025-12-17T14:57:17.442720",
        "meta_mean_motion": 15.51610656,
        "meta_eccentricity": 0.0004152,
        "meta_inclination": 51.6301,
        "meta_ra_of_asc_node": 118.1487,
        "meta_arg_of_pericenter": 250.0151,
        "meta_mean_anomaly": 110.0391,
        "meta_ephemeris_type": 0,
        "meta_classification_type": "U",
        "meta_norad_cat_id": 66912,
        "meta_element_set_no": 999,
        "meta_rev_at_epoch": 236,
        "meta_bstar": 0.00073169198,
        "meta_mean_motion_dot": 0.00044013,
        "meta_mean_motion_ddot": 0,
        "tle_line1": "1 66912U 98067XY  25351.62311855  .00044013  00000+0  73169-3 0  9991",
        "tle_line2": "2 66912  51.6301 118.1487 0004152 250.0151 110.0391 15.51610656  2360"
      },
      "geometry": {
        "type": "Point",
        "coordinates": [
          60.93402937226266,
          -45.02681369720001
        ]
      }
    }
  ]
}